STARLINK-36791          
1 68111U 26044L   26073.83335648 -.01769527  96156-3 -32378-2 0  9995
2 68111  97.2814  34.1005 0001338  82.9568 197.3965 16.01486104  2177
STARLINK-36893          
1 68112U 26044M   26073.83335648 -.01763922  95723-3 -32047-2 0  9991
2 68112  97.2812  34.1009 0001278  90.7422 191.4218 16.01609260  2221
STARLINK-36937          
1 68113U 26044N   26073.83335648 -.01771305  96782-3 -31693-2 0  9998
2 68113  97.2812  34.1028 0001333 105.3516 180.6123 16.01874244  2177
STARLINK-36229          
1 68114U 26044P   26073.83335648 -.01773186  96830-3 -31961-2 0  9990
2 68114  97.2806  34.1013 0001284 105.3444 178.8259 16.01747438  2229
STARLINK-36392          
1 68115U 26044Q   26073.83335648 -.01784943  98370-3 -31659-2 0  9999
2 68115  97.2810  34.1034 0001247  96.6995 191.5205 16.02027194  2224
STARLINK-36805          
1 68116U 26044R   26073.83335648 -.01774145  97428-3 -31190-2 0  9996
2 68116  97.2808  34.1044 0001282  91.9134 198.8579 16.02178338  2226
STARLINK-36844          
1 68117U 26044S   26073.83335648 -.01710264  91027-3 -29911-2 0  9996
2 68117  97.2806  34.1051 0001012 100.4897 192.1593 16.02261405  2171
STARLINK-36789          
1 68118U 26044T   26073.83335648 -.01786753  99095-3 -30871-2 0  9993
2 68118  97.2807  34.1071 0001216  87.1312 209.9296 16.02478637  2178
STARLINK-36850          
1 68119U 26044U   26073.83335648 -.01783679  98930-3 -30581-2 0  9993
2 68119  97.2805  34.1078 0001261  93.0074 205.9718 16.02609931  2173
STARLINK-36868          
1 68120U 26044V   26073.83335648 -.01811841  10211-2 -30762-2 0  9994
2 68120  97.2803  34.1091 0001293  94.8299 206.6157 16.02780355  2176
STARLINK-36855          
1 68121U 26044W   26073.83335648 -.01811447  10225-2 -30494-2 0  9994
2 68121  97.2802  34.1103 0001303 100.2708 203.4084 16.02925717  2176
STARLINK-36366          
1 68122U 26044X   26073.83335648 -.01798535  10103-2 -30059-2 0  9999
2 68122  97.2801  34.1108 0001136  93.7888 211.6847 16.03047659  2225
STARLINK-36922          
1 68123U 26044Y   26073.83335648 -.01792322  10070-2 -29485-2 0  9992
2 68123  97.2802  34.1126 0001283  94.1004 215.2982 16.03315562  2226
STARLINK-36938          
1 68124U 26044Z   26073.83335648 -.01796902  10134-2 -29338-2 0  9999
2 68124  97.2802  34.1133 0001169  95.1236 216.0238 16.03444033  2225
STARLINK-36839          
1 68125U 26044AA  26073.83335648 -.01788531  10015-2 -29635-2 0  9997
2 68125  97.2803  34.1120 0001250  88.1258 219.5512 16.03192964  2170
