[{"OBJECT_NAME":"STARLINK-36791","OBJECT_ID":"2026-044L","EPOCH":"2026-03-14T20:00:01.999872","MEAN_MOTION":16.01486104,"ECCENTRICITY":0.00013384,"INCLINATION":97.2814,"RA_OF_ASC_NODE":34.1005,"ARG_OF_PERICENTER":82.9568,"MEAN_ANOMALY":197.3965,"EPHEMERIS_TYPE":0,"CLASSIFICATION_TYPE":"U","NORAD_CAT_ID":68111,"ELEMENT_SET_NO":999,"REV_AT_EPOCH":217,"BSTAR":-0.003237831,"MEAN_MOTION_DOT":-0.01769527,"MEAN_MOTION_DDOT":0.00096156455},{"OBJECT_NAME":"STARLINK-36893","OBJECT_ID":"2026-044M","EPOCH":"2026-03-14T20:00:01.999872","MEAN_MOTION":16.0160926,"ECCENTRICITY":0.00012784,"INCLINATION":97.2812,"RA_OF_ASC_NODE":34.1009,"ARG_OF_PERICENTER":90.7422,"MEAN_ANOMALY":191.4218,"EPHEMERIS_TYPE":0,"CLASSIFICATION_TYPE":"U","NORAD_CAT_ID":68112,"ELEMENT_SET_NO":999,"REV_AT_EPOCH":222,"BSTAR":-0.0032046684,"MEAN_MOTION_DOT":-0.01763922,"MEAN_MOTION_DDOT":0.00095723393},{"OBJECT_NAME":"STARLINK-36937","OBJECT_ID":"2026-044N","EPOCH":"2026-03-14T20:00:01.999872","MEAN_MOTION":16.01874244,"ECCENTRICITY":0.00013336,"INCLINATION":97.2812,"RA_OF_ASC_NODE":34.1028,"ARG_OF_PERICENTER":105.3516,"MEAN_ANOMALY":180.6123,"EPHEMERIS_TYPE":0,"CLASSIFICATION_TYPE":"U","NORAD_CAT_ID":68113,"ELEMENT_SET_NO":999,"REV_AT_EPOCH":217,"BSTAR":-0.0031693354,"MEAN_MOTION_DOT":-0.01771305,"MEAN_MOTION_DDOT":0.0009678237},{"OBJECT_NAME":"STARLINK-36229","OBJECT_ID":"2026-044P","EPOCH":"2026-03-14T20:00:01.999872","MEAN_MOTION":16.01747438,"ECCENTRICITY":0.00012847,"INCLINATION":97.2806,"RA_OF_ASC_NODE":34.1013,"ARG_OF_PERICENTER":105.3444,"MEAN_ANOMALY":178.8259,"EPHEMERIS_TYPE":0,"CLASSIFICATION_TYPE":"U","NORAD_CAT_ID":68114,"ELEMENT_SET_NO":999,"REV_AT_EPOCH":222,"BSTAR":-0.0031961093,"MEAN_MOTION_DOT":-0.01773186,"MEAN_MOTION_DDOT":0.00096829813},{"OBJECT_NAME":"STARLINK-36392","OBJECT_ID":"2026-044Q","EPOCH":"2026-03-14T20:00:01.999872","MEAN_MOTION":16.02027194,"ECCENTRICITY":0.00012472,"INCLINATION":97.281,"RA_OF_ASC_NODE":34.1034,"ARG_OF_PERICENTER":96.6995,"MEAN_ANOMALY":191.5205,"EPHEMERIS_TYPE":0,"CLASSIFICATION_TYPE":"U","NORAD_CAT_ID":68115,"ELEMENT_SET_NO":999,"REV_AT_EPOCH":222,"BSTAR":-0.0031658967,"MEAN_MOTION_DOT":-0.01784943,"MEAN_MOTION_DDOT":0.00098370388},{"OBJECT_NAME":"STARLINK-36805","OBJECT_ID":"2026-044R","EPOCH":"2026-03-14T20:00:01.999872","MEAN_MOTION":16.02178338,"ECCENTRICITY":0.00012824,"INCLINATION":97.2808,"RA_OF_ASC_NODE":34.1044,"ARG_OF_PERICENTER":91.9134,"MEAN_ANOMALY":198.8579,"EPHEMERIS_TYPE":0,"CLASSIFICATION_TYPE":"U","NORAD_CAT_ID":68116,"ELEMENT_SET_NO":999,"REV_AT_EPOCH":222,"BSTAR":-0.00311903,"MEAN_MOTION_DOT":-0.01774145,"MEAN_MOTION_DDOT":0.00097428279},{"OBJECT_NAME":"STARLINK-36844","OBJECT_ID":"2026-044S","EPOCH":"2026-03-14T20:00:01.999872","MEAN_MOTION":16.02261405,"ECCENTRICITY":0.0001012,"INCLINATION":97.2806,"RA_OF_ASC_NODE":34.1051,"ARG_OF_PERICENTER":100.4897,"MEAN_ANOMALY":192.1593,"EPHEMERIS_TYPE":0,"CLASSIFICATION_TYPE":"U","NORAD_CAT_ID":68117,"ELEMENT_SET_NO":999,"REV_AT_EPOCH":217,"BSTAR":-0.0029910647,"MEAN_MOTION_DOT":-0.01710264,"MEAN_MOTION_DDOT":0.00091026676},{"OBJECT_NAME":"STARLINK-36789","OBJECT_ID":"2026-044T","EPOCH":"2026-03-14T20:00:01.999872","MEAN_MOTION":16.02478637,"ECCENTRICITY":0.00012169,"INCLINATION":97.2807,"RA_OF_ASC_NODE":34.1071,"ARG_OF_PERICENTER":87.1312,"MEAN_ANOMALY":209.9296,"EPHEMERIS_TYPE":0,"CLASSIFICATION_TYPE":"U","NORAD_CAT_ID":68118,"ELEMENT_SET_NO":999,"REV_AT_EPOCH":217,"BSTAR":-0.0030870553,"MEAN_MOTION_DOT":-0.01786753,"MEAN_MOTION_DDOT":0.00099094661},{"OBJECT_NAME":"STARLINK-36850","OBJECT_ID":"2026-044U","EPOCH":"2026-03-14T20:00:01.999872","MEAN_MOTION":16.02609931,"ECCENTRICITY":0.00012618,"INCLINATION":97.2805,"RA_OF_ASC_NODE":34.1078,"ARG_OF_PERICENTER":93.0074,"MEAN_ANOMALY":205.9718,"EPHEMERIS_TYPE":0,"CLASSIFICATION_TYPE":"U","NORAD_CAT_ID":68119,"ELEMENT_SET_NO":999,"REV_AT_EPOCH":217,"BSTAR":-0.003058138,"MEAN_MOTION_DOT":-0.01783679,"MEAN_MOTION_DDOT":0.00098929874},{"OBJECT_NAME":"STARLINK-36868","OBJECT_ID":"2026-044V","EPOCH":"2026-03-14T20:00:01.999872","MEAN_MOTION":16.02780355,"ECCENTRICITY":0.00012938,"INCLINATION":97.2803,"RA_OF_ASC_NODE":34.1091,"ARG_OF_PERICENTER":94.8299,"MEAN_ANOMALY":206.6157,"EPHEMERIS_TYPE":0,"CLASSIFICATION_TYPE":"U","NORAD_CAT_ID":68120,"ELEMENT_SET_NO":999,"REV_AT_EPOCH":217,"BSTAR":-0.0030761523,"MEAN_MOTION_DOT":-0.01811841,"MEAN_MOTION_DDOT":0.0010211106},{"OBJECT_NAME":"STARLINK-36855","OBJECT_ID":"2026-044W","EPOCH":"2026-03-14T20:00:01.999872","MEAN_MOTION":16.02925717,"ECCENTRICITY":0.00013037,"INCLINATION":97.2802,"RA_OF_ASC_NODE":34.1103,"ARG_OF_PERICENTER":100.2708,"MEAN_ANOMALY":203.4084,"EPHEMERIS_TYPE":0,"CLASSIFICATION_TYPE":"U","NORAD_CAT_ID":68121,"ELEMENT_SET_NO":999,"REV_AT_EPOCH":217,"BSTAR":-0.0030493837,"MEAN_MOTION_DOT":-0.01811447,"MEAN_MOTION_DDOT":0.0010225005},{"OBJECT_NAME":"STARLINK-36366","OBJECT_ID":"2026-044X","EPOCH":"2026-03-14T20:00:01.999872","MEAN_MOTION":16.03047659,"ECCENTRICITY":0.00011361,"INCLINATION":97.2801,"RA_OF_ASC_NODE":34.1108,"ARG_OF_PERICENTER":93.7888,"MEAN_ANOMALY":211.6847,"EPHEMERIS_TYPE":0,"CLASSIFICATION_TYPE":"U","NORAD_CAT_ID":68122,"ELEMENT_SET_NO":999,"REV_AT_EPOCH":222,"BSTAR":-0.0030058812,"MEAN_MOTION_DOT":-0.01798535,"MEAN_MOTION_DDOT":0.0010102717},{"OBJECT_NAME":"STARLINK-36922","OBJECT_ID":"2026-044Y","EPOCH":"2026-03-14T20:00:01.999872","MEAN_MOTION":16.03315562,"ECCENTRICITY":0.00012831,"INCLINATION":97.2802,"RA_OF_ASC_NODE":34.1126,"ARG_OF_PERICENTER":94.1004,"MEAN_ANOMALY":215.2982,"EPHEMERIS_TYPE":0,"CLASSIFICATION_TYPE":"U","NORAD_CAT_ID":68123,"ELEMENT_SET_NO":999,"REV_AT_EPOCH":222,"BSTAR":-0.0029484502,"MEAN_MOTION_DOT":-0.01792322,"MEAN_MOTION_DDOT":0.0010069828},{"OBJECT_NAME":"STARLINK-36938","OBJECT_ID":"2026-044Z","EPOCH":"2026-03-14T20:00:01.999872","MEAN_MOTION":16.03444033,"ECCENTRICITY":0.0001169,"INCLINATION":97.2802,"RA_OF_ASC_NODE":34.1133,"ARG_OF_PERICENTER":95.1236,"MEAN_ANOMALY":216.0238,"EPHEMERIS_TYPE":0,"CLASSIFICATION_TYPE":"U","NORAD_CAT_ID":68124,"ELEMENT_SET_NO":999,"REV_AT_EPOCH":222,"BSTAR":-0.0029337948,"MEAN_MOTION_DOT":-0.01796902,"MEAN_MOTION_DDOT":0.0010134499},{"OBJECT_NAME":"STARLINK-36839","OBJECT_ID":"2026-044AA","EPOCH":"2026-03-14T20:00:01.999872","MEAN_MOTION":16.03192964,"ECCENTRICITY":0.00012507,"INCLINATION":97.2803,"RA_OF_ASC_NODE":34.112,"ARG_OF_PERICENTER":88.1258,"MEAN_ANOMALY":219.5512,"EPHEMERIS_TYPE":0,"CLASSIFICATION_TYPE":"U","NORAD_CAT_ID":68125,"ELEMENT_SET_NO":999,"REV_AT_EPOCH":217,"BSTAR":-0.0029634836,"MEAN_MOTION_DOT":-0.01788531,"MEAN_MOTION_DDOT":0.0010014587}]
